CTC1_L_00599001-01
1 10000U 23959CS  26075.70039352  .00000000  00000+0  00000-0 0  9997
2 10000  55.0000   0.0000 0000000   0.0000   0.0000  5.61059995    13
CTC1_L_00599001-02
1 10001U 26589OT  26075.70039352  .00000000  00000+0  00000-0 0  9990
2 10001  55.0000   0.0000 0000000   0.0000  36.0000  5.61059995    13
CTC1_L_00599001-03
1 10002U 22039OR  26075.70039352  .00000000  00000+0  00000-0 0  9997
2 10002  55.0000   0.0000 0000000   0.0000  72.0000  5.61059995    14
CTC1_L_00599001-04
1 10003U 24448QW  26075.70039352  .00000000  00000+0  00000-0 0  9994
2 10003  55.0000   0.0000 0000000   0.0000 108.0000  5.61059995    15
CTC1_L_00599001-05
1 10004U 22344EY  26075.70039352  .00000000  00000+0  00000-0 0  9998
2 10004  55.0000   0.0000 0000000   0.0000 144.0000  5.61059995    16
CTC1_L_00599001-06
1 10005U 23002EM  26075.70039352  .00000000  00000+0  00000-0 0  9991
2 10005  55.0000   0.0000 0000000   0.0000 180.0000  5.61059995    17
CTC1_L_00599001-07
1 10006U 22184LQ  26075.70039352  .00000000  00000+0  00000-0 0  9992
2 10006  55.0000   0.0000 0000000   0.0000 216.0000  5.61059995    18
CTC1_L_00599001-08
1 10007U 26319DN  26075.70039352  .00000000  00000+0  00000-0 0  9997
2 10007  55.0000   0.0000 0000000   0.0000 252.0000  5.61059995    19
CTC1_L_00599001-09
1 10008U 23791UR  26075.70039352  .00000000  00000+0  00000-0 0  9999
2 10008  55.0000   0.0000 0000000   0.0000 288.0000  5.61059995    19
CTC1_L_00599001-10
1 10009U 25277NW  26075.70039352  .00000000  00000+0  00000-0 0  9991
2 10009  55.0000   0.0000 0000000   0.0000 324.0000  5.61059995    11
CTC1_L_00599002-01
1 10010U 26258NT  26075.70039352  .00000000  00000+0  00000-0 0  9993
2 10010  55.0000  30.0000 0000000   0.0000  12.0000  5.61059995    10
CTC1_L_00599002-02
1 10011U 22121DZ  26075.70039352  .00000000  00000+0  00000-0 0  9999
2 10011  55.0000  30.0000 0000000   0.0000  48.0000  5.61059995    10
CTC1_L_00599002-03
1 10012U 26592YK  26075.70039352  .00000000  00000+0  00000-0 0  9996
2 10012  55.0000  30.0000 0000000   0.0000  84.0000  5.61059995    11
CTC1_L_00599002-04
1 10013U 24879MU  26075.70039352  .00000000  00000+0  00000-0 0  9993
2 10013  55.0000  30.0000 0000000   0.0000 120.0000  5.61059995    13
CTC1_L_00599002-05
1 10014U 23133WF  26075.70039352  .00000000  00000+0  00000-0 0  9996
2 10014  55.0000  30.0000 0000000   0.0000 156.0000  5.61059995    13
CTC1_L_00599002-06
1 10015U 26908HG  26075.70039352  .00000000  00000+0  00000-0 0  9990
2 10015  55.0000  30.0000 0000000   0.0000 192.0000  5.61059995    14
CTC1_L_00599002-07
1 10016U 26714JD  26075.70039352  .00000000  00000+0  00000-0 0  9996
2 10016  55.0000  30.0000 0000000   0.0000 228.0000  5.61059995    15
CTC1_L_00599002-08
1 10017U 23255RZ  26075.70039352  .00000000  00000+0  00000-0 0  9994
2 10017  55.0000  30.0000 0000000   0.0000 264.0000  5.61059995    16
CTC1_L_00599002-09
1 10018U 25476FQ  26075.70039352  .00000000  00000+0  00000-0 0  9992
2 10018  55.0000  30.0000 0000000   0.0000 300.0000  5.61059995    18
CTC1_L_00599002-10
1 10019U 26939RB  26075.70039352  .00000000  00000+0  00000-0 0  9998
2 10019  55.0000  30.0000 0000000   0.0000 336.0000  5.61059995    18
CTC1_L_00599003-01
1 10020U 23563UY  26075.70039352  .00000000  00000+0  00000-0 0  9990
2 10020  55.0000  60.0000 0000000   0.0000  24.0000  5.61059995    17
CTC1_L_00599003-02
1 10021U 26522HV  26075.70039352  .00000000  00000+0  00000-0 0  9999
2 10021  55.0000  60.0000 0000000   0.0000  60.0000  5.61059995    18
CTC1_L_00599003-03
1 10022U 24149NN  26075.70039352  .00000000  00000+0  00000-0 0  9993
2 10022  55.0000  60.0000 0000000   0.0000  96.0000  5.61059995    18
CTC1_L_00599003-04
1 10023U 23351YT  26075.70039352  .00000000  00000+0  00000-0 0  9998
2 10023  55.0000  60.0000 0000000   0.0000 132.0000  5.61059995    10
CTC1_L_00599003-05
1 10024U 24127FN  26075.70039352  .00000000  00000+0  00000-0 0  9991
2 10024  55.0000  60.0000 0000000   0.0000 168.0000  5.61059995    10
CTC1_L_00599003-06
1 10025U 24259CZ  26075.70039352  .00000000  00000+0  00000-0 0  9998
2 10025  55.0000  60.0000 0000000   0.0000 204.0000  5.61059995    12
CTC1_L_00599003-07
1 10026U 26587DW  26075.70039352  .00000000  00000+0  00000-0 0  9995
2 10026  55.0000  60.0000 0000000   0.0000 240.0000  5.61059995    13
CTC1_L_00599003-08
1 10027U 26611VU  26075.70039352  .00000000  00000+0  00000-0 0  9994
2 10027  55.0000  60.0000 0000000   0.0000 276.0000  5.61059995    13
CTC1_L_00599003-09
1 10028U 26580WY  26075.70039352  .00000000  00000+0  00000-0 0  9990
2 10028  55.0000  60.0000 0000000   0.0000 312.0000  5.61059995    15
CTC1_L_00599003-10
1 10029U 23290DD  26075.70039352  .00000000  00000+0  00000-0 0  9996
2 10029  55.0000  60.0000 0000000   0.0000 348.0000  5.61059995    15
CTC1_L_00599004-01
1 10030U 23644JA  26075.70039352  .00000000  00000+0  00000-0 0  9991
2 10030  55.0000  90.0000 0000000   0.0000  36.0000  5.61059995    14
CTC1_L_00599004-02
1 10031U 23982QX  26075.70039352  .00000000  00000+0  00000-0 0  9997
2 10031  55.0000  90.0000 0000000   0.0000  72.0000  5.61059995    15
CTC1_L_00599004-03
1 10032U 25159OL  26075.70039352  .00000000  00000+0  00000-0 0  9996
2 10032  55.0000  90.0000 0000000   0.0000 108.0000  5.61059995    16
CTC1_L_00599004-04
1 10033U 23703BD  26075.70039352  .00000000  00000+0  00000-0 0  9990
2 10033  55.0000  90.0000 0000000   0.0000 144.0000  5.61059995    17
CTC1_L_00599004-05
1 10034U 24518MM  26075.70039352  .00000000  00000+0  00000-0 0  9996
2 10034  55.0000  90.0000 0000000   0.0000 180.0000  5.61059995    18
CTC1_L_00599004-06
1 10035U 23091TP  26075.70039352  .00000000  00000+0  00000-0 0  9992
2 10035  55.0000  90.0000 0000000   0.0000 216.0000  5.61059995    19
CTC1_L_00599004-07
1 10036U 23937WJ  26075.70039352  .00000000  00000+0  00000-0 0  9992
2 10036  55.0000  90.0000 0000000   0.0000 252.0000  5.61059995    10
CTC1_L_00599004-08
1 10037U 24553OW  26075.70039352  .00000000  00000+0  00000-0 0  9998
2 10037  55.0000  90.0000 0000000   0.0000 288.0000  5.61059995    10
CTC1_L_00599004-09
1 10038U 24507AV  26075.70039352  .00000000  00000+0  00000-0 0  9998
2 10038  55.0000  90.0000 0000000   0.0000 324.0000  5.61059995    12
CTC1_L_00599004-10
1 10039U 26174IE  26075.70039352  .00000000  00000+0  00000-0 0  9991
2 10039  55.0000  90.0000 0000000   0.0000   0.0000  5.61059995    14
CTC1_L_00599005-01
1 10040U 24334NM  26075.70039352  .00000000  00000+0  00000-0 0  9999
2 10040  55.0000 120.0000 0000000   0.0000  48.0000  5.61059995    12
CTC1_L_00599005-02
1 10041U 22802ZZ  26075.70039352  .00000000  00000+0  00000-0 0  9998
2 10041  55.0000 120.0000 0000000   0.0000  84.0000  5.61059995    13
CTC1_L_00599005-03
1 10042U 22607EV  26075.70039352  .00000000  00000+0  00000-0 0  9992
2 10042  55.0000 120.0000 0000000   0.0000 120.0000  5.61059995    15
CTC1_L_00599005-04
1 10043U 24133UJ  26075.70039352  .00000000  00000+0  00000-0 0  9999
2 10043  55.0000 120.0000 0000000   0.0000 156.0000  5.61059995    15
CTC1_L_00599005-05
1 10044U 23453UM  26075.70039352  .00000000  00000+0  00000-0 0  9994
2 10044  55.0000 120.0000 0000000   0.0000 192.0000  5.61059995    16
CTC1_L_00599005-06
1 10045U 24001LD  26075.70039352  .00000000  00000+0  00000-0 0  9995
2 10045  55.0000 120.0000 0000000   0.0000 228.0000  5.61059995    17
CTC1_L_00599005-07
1 10046U 23518LL  26075.70039352  .00000000  00000+0  00000-0 0  9998
2 10046  55.0000 120.0000 0000000   0.0000 264.0000  5.61059995    18
CTC1_L_00599005-08
1 10047U 26934BM  26075.70039352  .00000000  00000+0  00000-0 0  9994
2 10047  55.0000 120.0000 0000000   0.0000 300.0000  5.61059995    10
CTC1_L_00599005-09
1 10048U 24813U   26075.70039352  .00000000  00000+0  00000-0 0  9999
2 10048  55.0000 120.0000 0000000   0.0000 336.0000  5.61059995    10
CTC1_L_00599005-10
1 10049U 25459CZ  26075.70039352  .00000000  00000+0  00000-0 0  9997
2 10049  55.0000 120.0000 0000000   0.0000  12.0000  5.61059995    12
CTC1_L_00599006-01
1 10050U 23500FC  26075.70039352  .00000000  00000+0  00000-0 0  9994
2 10050  55.0000 150.0000 0000000   0.0000  60.0000  5.61059995    10
CTC1_L_00599006-02
1 10051U 26269YU  26075.70039352  .00000000  00000+0  00000-0 0  9990
2 10051  55.0000 150.0000 0000000   0.0000  96.0000  5.61059995    10
CTC1_L_00599006-03
1 10052U 25857TT  26075.70039352  .00000000  00000+0  00000-0 0  9993
2 10052  55.0000 150.0000 0000000   0.0000 132.0000  5.61059995    12
CTC1_L_00599006-04
1 10053U 26823SO  26075.70039352  .00000000  00000+0  00000-0 0  9998
2 10053  55.0000 150.0000 0000000   0.0000 168.0000  5.61059995    12
CTC1_L_00599006-05
1 10054U 24820NV  26075.70039352  .00000000  00000+0  00000-0 0  9994
2 10054  55.0000 150.0000 0000000   0.0000 204.0000  5.61059995    14
CTC1_L_00599006-06
1 10055U 22299OT  26075.70039352  .00000000  00000+0  00000-0 0  9993
2 10055  55.0000 150.0000 0000000   0.0000 240.0000  5.61059995    15
CTC1_L_00599006-07
1 10056U 23631AT  26075.70039352  .00000000  00000+0  00000-0 0  9995
2 10056  55.0000 150.0000 0000000   0.0000 276.0000  5.61059995    15
CTC1_L_00599006-08
1 10057U 22262ID  26075.70039352  .00000000  00000+0  00000-0 0  9995
2 10057  55.0000 150.0000 0000000   0.0000 312.0000  5.61059995    17
CTC1_L_00599006-09
1 10058U 25322JQ  26075.70039352  .00000000  00000+0  00000-0 0  9996
2 10058  55.0000 150.0000 0000000   0.0000 348.0000  5.61059995    17
CTC1_L_00599006-10
1 10059U 22188OX  26075.70039352  .00000000  00000+0  00000-0 0  9994
2 10059  55.0000 150.0000 0000000   0.0000  24.0000  5.61059995    19
CTC1_L_00599007-01
1 10060U 24409KP  26075.70039352  .00000000  00000+0  00000-0 0  9994
2 10060  55.0000 180.0000 0000000   0.0000  72.0000  5.61059995    17
CTC1_L_00599007-02
1 10061U 26515LZ  26075.70039352  .00000000  00000+0  00000-0 0  9995
2 10061  55.0000 180.0000 0000000   0.0000 108.0000  5.61059995    18
